start=new Date('2022-08-15T00:00:00.000Z').valueOf();
sats=[{"MEAN_MOTION_DOT":"-0.00000286","OBJECT_NAME":"STARLINK-3276","MEAN_ELEMENT_THEORY":"SGP4","TLE_LINE2":"2 50189  53.2190 339.0088 0001405  66.5493 293.5646 15.08843620 39913","PERIAPSIS":"538.762","ARG_OF_PERICENTER":"66.5493","FILE":"3536615","RA_OF_ASC_NODE":"339.0088","CLASSIFICATION_TYPE":"U","RCS_SIZE":"LARGE","LAUNCH_DATE":"2021-12-18","TIME_SYSTEM":"UTC","EPHEMERIS_TYPE":"0","MEAN_MOTION":"15.08843620","DECAY_DATE":null,"OBJECT_TYPE":"PAYLOAD","SITE":"AFWTR","ECCENTRICITY":"0.00014050","COUNTRY_CODE":"US","GP_ID":"210233621","REV_AT_EPOCH":"3991","APOAPSIS":"540.706","EPOCH":"2022-08-14T13:55:27.602112","MEAN_ANOMALY":"293.5646","TLE_LINE1":"1 50189U 21125AK  22226.58018058 -.00000286  00000-0  94831-7 0  9992","REF_FRAME":"TEME","OBJECT_ID":"2021-125AK","PERIOD":"95.437","NORAD_CAT_ID":"50189","CENTER_NAME":"EARTH","INCLINATION":"53.2190","SEMIMAJOR_AXIS":"6917.869","ELEMENT_SET_NO":"999","BSTAR":"0.00000009483100","MEAN_MOTION_DDOT":"0.0000000000000"},{"MEAN_MOTION":"15.08839130","DECAY_DATE":null,"EPHEMERIS_TYPE":"0","OBJECT_TYPE":"PAYLOAD","SITE":"AFWTR","TLE_LINE2":"2 50190  53.2184 328.1924 0001623  54.4169 305.6974 15.08839130 40039","MEAN_ELEMENT_THEORY":"SGP4","OBJECT_NAME":"STARLINK-3268","MEAN_MOTION_DOT":"0.00001591","PERIAPSIS":"538.625","CLASSIFICATION_TYPE":"U","RA_OF_ASC_NODE":"328.1924","FILE":"3536615","ARG_OF_PERICENTER":"54.4169","LAUNCH_DATE":"2021-12-18","RCS_SIZE":"LARGE","TIME_SYSTEM":"UTC","NORAD_CAT_ID":"50190","CENTER_NAME":"EARTH","INCLINATION":"53.2184","ELEMENT_SET_NO":"999","SEMIMAJOR_AXIS":"6917.883","BSTAR":"0.00011803000000","MEAN_MOTION_DDOT":"0.0000000000000","COUNTRY_CODE":"US","ECCENTRICITY":"0.00016230","GP_ID":"210233870","REV_AT_EPOCH":"4003","APOAPSIS":"540.871","MEAN_ANOMALY":"305.6974","EPOCH":"2022-08-14T18:16:27.739488","TLE_LINE1":"1 50190U 21125AL  22226.76143217  .00001591  00000-0  11803-3 0  9993","REF_FRAME":"TEME","PERIOD":"95.438","OBJECT_ID":"2021-125AL"},{"BSTAR":"-0.00007233500000","MEAN_MOTION_DDOT":"0.0000000000000","NORAD_CAT_ID":"50191","CENTER_NAME":"EARTH","INCLINATION":"53.2167","ELEMENT_SET_NO":"999","SEMIMAJOR_AXIS":"6917.882","TLE_LINE1":"1 50191U 21125AM  22226.83687186 -.00001439  00000-0 -72335-4 0  9991","REF_FRAME":"TEME","PERIOD":"95.438","OBJECT_ID":"2021-125AM","COUNTRY_CODE":"US","ECCENTRICITY":"0.00014930","GP_ID":"210234120","APOAPSIS":"540.780","REV_AT_EPOCH":"3976","MEAN_ANOMALY":"305.9235","EPOCH":"2022-08-14T20:05:05.728704","SITE":"AFWTR","OBJECT_TYPE":"PAYLOAD","DECAY_DATE":null,"MEAN_MOTION":"15.08839566","EPHEMERIS_TYPE":"0","CLASSIFICATION_TYPE":"U","ARG_OF_PERICENTER":"54.1896","FILE":"3536615","RA_OF_ASC_NODE":"347.8562","RCS_SIZE":"LARGE","LAUNCH_DATE":"2021-12-18","TIME_SYSTEM":"UTC","TLE_LINE2":"2 50191  53.2167 347.8562 0001493  54.1896 305.9235 15.08839566 39760","MEAN_ELEMENT_THEORY":"SGP4","MEAN_MOTION_DOT":"-0.00001439","OBJECT_NAME":"STARLINK-3273","PERIAPSIS":"538.714"},{"TIME_SYSTEM":"UTC","FILE":"3536615","ARG_OF_PERICENTER":"51.9741","RA_OF_ASC_NODE":"328.5084","CLASSIFICATION_TYPE":"U","RCS_SIZE":"LARGE","LAUNCH_DATE":"2021-12-18","MEAN_MOTION_DOT":"0.00001146","OBJECT_NAME":"STARLINK-3259","MEAN_ELEMENT_THEORY":"SGP4","TLE_LINE2":"2 50192  53.2176 328.5084 0001737  51.9741 308.1408 15.08851968 40029","PERIAPSIS":"538.507","SITE":"AFWTR","OBJECT_TYPE":"PAYLOAD","EPHEMERIS_TYPE":"0","DECAY_DATE":null,"MEAN_MOTION":"15.08851968","REF_FRAME":"TEME","OBJECT_ID":"2021-125AN","PERIOD":"95.437","TLE_LINE1":"1 50192U 21125AN  22226.69150851  .00001146  00000-0  90086-4 0  9996","APOAPSIS":"540.910","REV_AT_EPOCH":"4002","EPOCH":"2022-08-14T16:35:46.335264","MEAN_ANOMALY":"308.1408","ECCENTRICITY":"0.00017370","COUNTRY_CODE":"US","GP_ID":"210232871","MEAN_MOTION_DDOT":"0.0000000000000","BSTAR":"0.00009008600000","INCLINATION":"53.2176","CENTER_NAME":"EARTH","SEMIMAJOR_AXIS":"6917.844","ELEMENT_SET_NO":"999","NORAD_CAT_ID":"50192"},{"MEAN_MOTION":"15.08864921","DECAY_DATE":null,"EPHEMERIS_TYPE":"0","SITE":"AFWTR","OBJECT_TYPE":"PAYLOAD","PERIAPSIS":"538.241","MEAN_ELEMENT_THEORY":"SGP4","TLE_LINE2":"2 50193  53.2191 329.3469 0002065  50.0576 310.0597 15.08864921 40040","OBJECT_NAME":"STARLINK-3261","MEAN_MOTION_DOT":"-0.00006277","TIME_SYSTEM":"UTC","LAUNCH_DATE":"2021-12-18","RCS_SIZE":"LARGE","CLASSIFICATION_TYPE":"U","FILE":"3536350","RA_OF_ASC_NODE":"329.3469","ARG_OF_PERICENTER":"50.0576","ELEMENT_SET_NO":"999","SEMIMAJOR_AXIS":"6917.804","CENTER_NAME":"EARTH","INCLINATION":"53.2191","NORAD_CAT_ID":"50193","MEAN_MOTION_DDOT":"0.0000000000000","BSTAR":"-0.00037632000000","MEAN_ANOMALY":"310.0597","EPOCH":"2022-08-14T12:05:29.482080","REV_AT_EPOCH":"4004","APOAPSIS":"541.098","GP_ID":"210202484","COUNTRY_CODE":"US","ECCENTRICITY":"0.00020650","PERIOD":"95.436","OBJECT_ID":"2021-125AP","REF_FRAME":"TEME","TLE_LINE1":"1 50193U 21125AP  22226.50381345 -.00006277  00000-0 -37632-3 0  9990"},{"EPHEMERIS_TYPE":"0","MEAN_MOTION":"15.08839800","DECAY_DATE":null,"SITE":"AFWTR","OBJECT_TYPE":"PAYLOAD","PERIAPSIS":"538.810","OBJECT_NAME":"STARLINK-3269","MEAN_MOTION_DOT":"-0.00000049","MEAN_ELEMENT_THEORY":"SGP4","TLE_LINE2":"2 50194  53.2186 329.1123 0001353  69.4796 290.6341 15.08839800 40056","LAUNCH_DATE":"2021-12-18","RCS_SIZE":"LARGE","FILE":"3536615","RA_OF_ASC_NODE":"329.1123","ARG_OF_PERICENTER":"69.4796","CLASSIFICATION_TYPE":"U","TIME_SYSTEM":"UTC","NORAD_CAT_ID":"50194","SEMIMAJOR_AXIS":"6917.881","ELEMENT_SET_NO":"999","INCLINATION":"53.2186","CENTER_NAME":"EARTH","BSTAR":"0.00001500700000","MEAN_MOTION_DDOT":"0.0000000000000","GP_ID":"210234371","ECCENTRICITY":"0.00013530","COUNTRY_CODE":"US","EPOCH":"2022-08-14T13:19:42.133728","MEAN_ANOMALY":"290.6341","REV_AT_EPOCH":"4005","APOAPSIS":"540.682","TLE_LINE1":"1 50194U 21125AQ  22226.55534877 -.00000049  00000-0  15007-4 0  9999","OBJECT_ID":"2021-125AQ","PERIOD":"95.438","REF_FRAME":"TEME"},{"SEMIMAJOR_AXIS":"6917.836","ELEMENT_SET_NO":"999","CENTER_NAME":"EARTH","INCLINATION":"53.2187","NORAD_CAT_ID":"50195","MEAN_MOTION_DDOT":"0.0000000000000","BSTAR":"0.00011718000000","EPOCH":"2022-08-14T18:21:44.358336","MEAN_ANOMALY":"279.4108","REV_AT_EPOCH":"4003","APOAPSIS":"540.649","GP_ID":"210234621","ECCENTRICITY":"0.00013710","COUNTRY_CODE":"US","OBJECT_ID":"2021-125AR","PERIOD":"95.437","REF_FRAME":"TEME","TLE_LINE1":"1 50195U 21125AR  22226.76509674  .00001578  00000-0  11718-3 0  9991","EPHEMERIS_TYPE":"0","MEAN_MOTION":"15.08854658","DECAY_DATE":null,"SITE":"AFWTR","OBJECT_TYPE":"PAYLOAD","PERIAPSIS":"538.752","MEAN_MOTION_DOT":"0.00001578","OBJECT_NAME":"STARLINK-3266","TLE_LINE2":"2 50195  53.2187 328.1756 0001371  80.7039 279.4108 15.08854658 40037","MEAN_ELEMENT_THEORY":"SGP4","TIME_SYSTEM":"UTC","RCS_SIZE":"LARGE","LAUNCH_DATE":"2021-12-18","ARG_OF_PERICENTER":"80.7039","FILE":"3536615","RA_OF_ASC_NODE":"328.1756","CLASSIFICATION_TYPE":"U"},{"TIME_SYSTEM":"UTC","RCS_SIZE":"LARGE","LAUNCH_DATE":"2021-12-18","CLASSIFICATION_TYPE":"U","RA_OF_ASC_NODE":"329.1548","FILE":"3536615","ARG_OF_PERICENTER":"74.8713","PERIAPSIS":"538.892","MEAN_ELEMENT_THEORY":"SGP4","TLE_LINE2":"2 50196  53.2196 329.1548 0001258  74.8713 285.2418 15.08834432 40009","MEAN_MOTION_DOT":"-0.00001577","OBJECT_NAME":"STARLINK-3263","OBJECT_TYPE":"PAYLOAD","SITE":"AFWTR","DECAY_DATE":null,"MEAN_MOTION":"15.08834432","EPHEMERIS_TYPE":"0","PERIOD":"95.438","OBJECT_ID":"2021-125AS","REF_FRAME":"TEME","TLE_LINE1":"1 50196U 21125AS  22226.54799361 -.00001577  00000-0 -81015-4 0  9991","MEAN_ANOMALY":"285.2418","EPOCH":"2022-08-14T13:09:06.647904","APOAPSIS":"540.633","REV_AT_EPOCH":"4000","GP_ID":"210233372","COUNTRY_CODE":"US","ECCENTRICITY":"0.00012580","MEAN_MOTION_DDOT":"0.0000000000000","BSTAR":"-0.00008101500000","ELEMENT_SET_NO":"999","SEMIMAJOR_AXIS":"6917.897","CENTER_NAME":"EARTH","INCLINATION":"53.2196","NORAD_CAT_ID":"50196"},{"MEAN_ELEMENT_THEORY":"SGP4","TLE_LINE2":"2 50197  53.2185 328.2459 0001572  62.1758 297.9394 15.08845045 40080","MEAN_MOTION_DOT":"0.00002947","OBJECT_NAME":"STARLINK-3267","PERIAPSIS":"538.642","CLASSIFICATION_TYPE":"U","FILE":"3536615","ARG_OF_PERICENTER":"62.1758","RA_OF_ASC_NODE":"328.2459","LAUNCH_DATE":"2021-12-18","RCS_SIZE":"LARGE","TIME_SYSTEM":"UTC","MEAN_MOTION":"15.08845045","DECAY_DATE":null,"EPHEMERIS_TYPE":"0","SITE":"AFWTR","OBJECT_TYPE":"PAYLOAD","COUNTRY_CODE":"US","ECCENTRICITY":"0.00015720","GP_ID":"210233622","APOAPSIS":"540.817","REV_AT_EPOCH":"4008","MEAN_ANOMALY":"297.9394","EPOCH":"2022-08-14T18:00:32.915808","TLE_LINE1":"1 50197U 21125AT  22226.75038097  .00002947  00000-0  20312-3 0  9999","REF_FRAME":"TEME","PERIOD":"95.437","OBJECT_ID":"2021-125AT","NORAD_CAT_ID":"50197","CENTER_NAME":"EARTH","INCLINATION":"53.2185","ELEMENT_SET_NO":"999","SEMIMAJOR_AXIS":"6917.865","BSTAR":"0.00020312000000","MEAN_MOTION_DDOT":"0.0000000000000"},{"EPHEMERIS_TYPE":"0","DECAY_DATE":null,"MEAN_MOTION":"15.08851566","OBJECT_TYPE":"PAYLOAD","SITE":"AFWTR","PERIAPSIS":"538.616","OBJECT_NAME":"STARLINK-3264","MEAN_MOTION_DOT":"0.00000495","TLE_LINE2":"2 50198  53.2170 328.0249 0001582  65.5053 294.6104 15.08851566 40040","MEAN_ELEMENT_THEORY":"SGP4","RCS_SIZE":"LARGE","LAUNCH_DATE":"2021-12-18","FILE":"3536615","ARG_OF_PERICENTER":"65.5053","RA_OF_ASC_NODE":"328.0249","CLASSIFICATION_TYPE":"U","TIME_SYSTEM":"UTC","NORAD_CAT_ID":"50198","SEMIMAJOR_AXIS":"6917.845","ELEMENT_SET_NO":"999","INCLINATION":"53.2170","CENTER_NAME":"EARTH","BSTAR":"0.00004919800000","MEAN_MOTION_DDOT":"0.0000000000000","GP_ID":"210233871","ECCENTRICITY":"0.00015820","COUNTRY_CODE":"US","EPOCH":"2022-08-14T19:14:44.446848","MEAN_ANOMALY":"294.6104","REV_AT_EPOCH":"4004","APOAPSIS":"540.804","TLE_LINE1":"1 50198U 21125AU  22226.80190332  .00000495  00000-0  49198-4 0  9997","OBJECT_ID":"2021-125AU","PERIOD":"95.437","REF_FRAME":"TEME"}];
